IRIDIUM 57 [-]          
1 25273U 98019B   23325.66808196  .00000414  00000+0  13876-3 0  9991
2 25273  86.3995  25.4270 0002143  94.1342 266.0099 14.34988233342516
IRIDIUM 63 [-]          
1 25286U 98021B   23325.48936584  .00000495  00000+0  16556-3 0  9998
2 25286  86.3958 322.4502 0002129  85.9100 274.2340 14.35492720341512
IRIDIUM 69 [-]          
1 25319U 98026A   23325.54064579  .00000584  00000+0  18054-3 0  9997
2 25319  86.3976 337.4232 0004387 103.1165 257.0524 14.39673219340494
IRIDIUM 71 [-]          
1 25320U 98026B   23325.51786160  .00000503  00000+0  15338-3 0  9996
2 25320  86.3963 332.2508 0003134 133.6754 226.4705 14.39997250341005
IRIDIUM 73 [-]          
1 25344U 98032C   23325.87245515  .00000840  00000+0  21110-3 0  9991
2 25344  86.4385 289.8445 0002930  95.9469 264.2070 14.50138976347436
IRIDIUM 82 [-]          
1 25467U 98051A   23325.71011838  .00013902  00000+0  80550-3 0  9996
2 25467  86.3973  23.9218 0141549 262.6916  95.8212 15.03898978337090
IRIDIUM 2 [-]           
1 25527U 98066A   23325.78808540  .00049706  00000+0  10281-2 0  9994
2 25527  85.5177  75.2572 0004689  56.7871 303.3834 15.45591695375419
